STARLINK-3505           
1 51750U 22016AN  26039.29125585  .00000279  00000+0  35610-4 0  9992
2 51750  53.2177  81.1103 0001344  89.6283 270.4863 15.08835826219263
STARLINK-3506           
1 51751U 22016AP  26039.10359435 -.00001636  00000+0 -84791-4 0  9990
2 51751  53.2177  81.9478 0001475  94.7093 265.4068 15.08821431219233
STARLINK-3511           
1 51752U 22016AQ  26039.28020709  .00000473  00000+0  47832-4 0  9990
2 51752  53.2181  81.0769 0001338  93.3121 266.8024 15.08834428219268
STARLINK-3507           
1 51753U 22016AR  26038.43383630 -.00001337  00000+0 -65930-4 0  9993
2 51753  53.2187  84.9570 0001605  58.9326 301.1824 15.08826429219137
STARLINK-3457           
1 51754U 22016AS  26039.25714653  .00000244  00000+0  33430-4 0  9992
2 51754  53.2174  81.0070 0001571 104.8926 255.2240 15.08841286219269
STARLINK-3460           
1 51755U 22016AT  26039.28294026  .00000313  00000+0  37771-4 0  9992
2 51755  53.2173  81.1317 0001225  99.2809 260.8322 15.08838433219260
STARLINK-3513           
1 51756U 22016AU  26039.25349522  .00000726  00000+0  63712-4 0  9994
2 51756  53.2195  81.2683 0001269  87.3679 272.7459 15.08839326219268
STARLINK-3459           
1 51757U 22016AV  26039.25077387  .00000035  00000+0  20291-4 0  9990
2 51757  53.2177  81.2886 0001570  94.8727 265.2445 15.08843765219260
STARLINK-3458           
1 51758U 22016AW  26039.10989024  .00010564  00000+0  67938-3 0  9991
2 51758  53.2192  81.8652 0000905  81.2492 278.8603 15.08919977220385
STARLINK-3456           
1 51759U 22016AX  26039.11365431  .00000211  00000+0  31352-4 0  9993
2 51759  53.2171  81.8958 0001438  87.5814 272.5342 15.08839916219249
STARLINK-3622           
1 51768U 22017A   26039.21025614  .00001595  00000+0  11832-3 0  9997
2 51768  53.2190 111.4616 0001596  91.9057 268.2118 15.08837226219597
STARLINK-3621           
1 51769U 22017B   26039.20289731  .00002136  00000+0  15224-3 0  9990
2 51769  53.2172 111.4915 0001520  73.5257 286.5902 15.08838721218151
STARLINK-3612           
1 51770U 22017C   26038.47793478  .00000736  00000+0  64344-4 0  9990
2 51770  53.2181 114.7477 0001427  86.3941 273.7214 15.08843424218059
STARLINK-3614           
1 51771U 22017D   26039.26545700  .00000188  00000+0  29890-4 0  9990
2 51771  53.2170 111.2005 0001331  99.7605 260.3538 15.08838010218164
STARLINK-3623           
1 51772U 22017E   26039.19185353  .00000980  00000+0  79667-4 0  9994
2 51772  53.2179 111.5433 0001457  75.6738 284.4416 15.08838621218149
STARLINK-3624           
1 51773U 22017F   26038.46785267 -.00000014  00000+0  17200-4 0  9998
2 51773  53.2176 114.7654 0001331  83.8462 276.2682 15.08835166218047
