[{"OBJECT_NAME":"STARLINK-3505","OBJECT_ID":"2022-016AN","EPOCH":"2026-02-08T06:59:24.505440","MEAN_MOTION":15.08835826,"ECCENTRICITY":0.00013449,"INCLINATION":53.2177,"RA_OF_ASC_NODE":81.1103,"ARG_OF_PERICENTER":89.6283,"MEAN_ANOMALY":270.4863,"EPHEMERIS_TYPE":0,"CLASSIFICATION_TYPE":"U","NORAD_CAT_ID":51750,"ELEMENT_SET_NO":999,"REV_AT_EPOCH":21926,"BSTAR":3.561045e-5,"MEAN_MOTION_DOT":2.79e-6,"MEAN_MOTION_DDOT":0},{"OBJECT_NAME":"STARLINK-3506","OBJECT_ID":"2022-016AP","EPOCH":"2026-02-08T02:29:10.551840","MEAN_MOTION":15.08821431,"ECCENTRICITY":0.00014751,"INCLINATION":53.2177,"RA_OF_ASC_NODE":81.9478,"ARG_OF_PERICENTER":94.7093,"MEAN_ANOMALY":265.4068,"EPHEMERIS_TYPE":0,"CLASSIFICATION_TYPE":"U","NORAD_CAT_ID":51751,"ELEMENT_SET_NO":999,"REV_AT_EPOCH":21923,"BSTAR":-8.4790992e-5,"MEAN_MOTION_DOT":-1.636e-5,"MEAN_MOTION_DDOT":0},{"OBJECT_NAME":"STARLINK-3511","OBJECT_ID":"2022-016AQ","EPOCH":"2026-02-08T06:43:29.892576","MEAN_MOTION":15.08834428,"ECCENTRICITY":0.00013382,"INCLINATION":53.2181,"RA_OF_ASC_NODE":81.0769,"ARG_OF_PERICENTER":93.3121,"MEAN_ANOMALY":266.8024,"EPHEMERIS_TYPE":0,"CLASSIFICATION_TYPE":"U","NORAD_CAT_ID":51752,"ELEMENT_SET_NO":999,"REV_AT_EPOCH":21926,"BSTAR":4.7832013e-5,"MEAN_MOTION_DOT":4.73e-6,"MEAN_MOTION_DDOT":0},{"OBJECT_NAME":"STARLINK-3507","OBJECT_ID":"2022-016AR","EPOCH":"2026-02-07T10:24:43.456320","MEAN_MOTION":15.08826429,"ECCENTRICITY":0.00016051,"INCLINATION":53.2187,"RA_OF_ASC_NODE":84.957,"ARG_OF_PERICENTER":58.9326,"MEAN_ANOMALY":301.1824,"EPHEMERIS_TYPE":0,"CLASSIFICATION_TYPE":"U","NORAD_CAT_ID":51753,"ELEMENT_SET_NO":999,"REV_AT_EPOCH":21913,"BSTAR":-6.5930387e-5,"MEAN_MOTION_DOT":-1.337e-5,"MEAN_MOTION_DDOT":0},{"OBJECT_NAME":"STARLINK-3457","OBJECT_ID":"2022-016AS","EPOCH":"2026-02-08T06:10:17.460192","MEAN_MOTION":15.08841286,"ECCENTRICITY":0.00015718,"INCLINATION":53.2174,"RA_OF_ASC_NODE":81.007,"ARG_OF_PERICENTER":104.8926,"MEAN_ANOMALY":255.224,"EPHEMERIS_TYPE":0,"CLASSIFICATION_TYPE":"U","NORAD_CAT_ID":51754,"ELEMENT_SET_NO":999,"REV_AT_EPOCH":21926,"BSTAR":3.3429794e-5,"MEAN_MOTION_DOT":2.44e-6,"MEAN_MOTION_DDOT":0},{"OBJECT_NAME":"STARLINK-3460","OBJECT_ID":"2022-016AT","EPOCH":"2026-02-08T06:47:26.038464","MEAN_MOTION":15.08838433,"ECCENTRICITY":0.00012256,"INCLINATION":53.2173,"RA_OF_ASC_NODE":81.1317,"ARG_OF_PERICENTER":99.2809,"MEAN_ANOMALY":260.8322,"EPHEMERIS_TYPE":0,"CLASSIFICATION_TYPE":"U","NORAD_CAT_ID":51755,"ELEMENT_SET_NO":999,"REV_AT_EPOCH":21926,"BSTAR":3.777098e-5,"MEAN_MOTION_DOT":3.13e-6,"MEAN_MOTION_DDOT":0},{"OBJECT_NAME":"STARLINK-3513","OBJECT_ID":"2022-016AU","EPOCH":"2026-02-08T06:05:01.987008","MEAN_MOTION":15.08839326,"ECCENTRICITY":0.00012697,"INCLINATION":53.2195,"RA_OF_ASC_NODE":81.2683,"ARG_OF_PERICENTER":87.3679,"MEAN_ANOMALY":272.7459,"EPHEMERIS_TYPE":0,"CLASSIFICATION_TYPE":"U","NORAD_CAT_ID":51756,"ELEMENT_SET_NO":999,"REV_AT_EPOCH":21926,"BSTAR":6.3712013e-5,"MEAN_MOTION_DOT":7.26e-6,"MEAN_MOTION_DDOT":0},{"OBJECT_NAME":"STARLINK-3459","OBJECT_ID":"2022-016AV","EPOCH":"2026-02-08T06:01:06.862368","MEAN_MOTION":15.08843765,"ECCENTRICITY":0.00015704,"INCLINATION":53.2177,"RA_OF_ASC_NODE":81.2886,"ARG_OF_PERICENTER":94.8727,"MEAN_ANOMALY":265.2445,"EPHEMERIS_TYPE":0,"CLASSIFICATION_TYPE":"U","NORAD_CAT_ID":51757,"ELEMENT_SET_NO":999,"REV_AT_EPOCH":21926,"BSTAR":2.0290576e-5,"MEAN_MOTION_DOT":3.5e-7,"MEAN_MOTION_DDOT":0},{"OBJECT_NAME":"STARLINK-3458","OBJECT_ID":"2022-016AW","EPOCH":"2026-02-08T02:38:14.516736","MEAN_MOTION":15.08919977,"ECCENTRICITY":9.059e-5,"INCLINATION":53.2192,"RA_OF_ASC_NODE":81.8652,"ARG_OF_PERICENTER":81.2492,"MEAN_ANOMALY":278.8603,"EPHEMERIS_TYPE":0,"CLASSIFICATION_TYPE":"U","NORAD_CAT_ID":51758,"ELEMENT_SET_NO":999,"REV_AT_EPOCH":22038,"BSTAR":0.00067937653,"MEAN_MOTION_DOT":0.00010564,"MEAN_MOTION_DDOT":0},{"OBJECT_NAME":"STARLINK-3456","OBJECT_ID":"2022-016AX","EPOCH":"2026-02-08T02:43:39.732384","MEAN_MOTION":15.08839916,"ECCENTRICITY":0.00014383,"INCLINATION":53.2171,"RA_OF_ASC_NODE":81.8958,"ARG_OF_PERICENTER":87.5814,"MEAN_ANOMALY":272.5342,"EPHEMERIS_TYPE":0,"CLASSIFICATION_TYPE":"U","NORAD_CAT_ID":51759,"ELEMENT_SET_NO":999,"REV_AT_EPOCH":21924,"BSTAR":3.1351933e-5,"MEAN_MOTION_DOT":2.11e-6,"MEAN_MOTION_DDOT":0},{"OBJECT_NAME":"STARLINK-3622","OBJECT_ID":"2022-017A","EPOCH":"2026-02-08T05:02:46.130496","MEAN_MOTION":15.08837226,"ECCENTRICITY":0.00015961,"INCLINATION":53.219,"RA_OF_ASC_NODE":111.4616,"ARG_OF_PERICENTER":91.9057,"MEAN_ANOMALY":268.2118,"EPHEMERIS_TYPE":0,"CLASSIFICATION_TYPE":"U","NORAD_CAT_ID":51768,"ELEMENT_SET_NO":999,"REV_AT_EPOCH":21959,"BSTAR":0.00011832396,"MEAN_MOTION_DOT":1.595e-5,"MEAN_MOTION_DDOT":0},{"OBJECT_NAME":"STARLINK-3621","OBJECT_ID":"2022-017B","EPOCH":"2026-02-08T04:52:10.327584","MEAN_MOTION":15.08838721,"ECCENTRICITY":0.000152,"INCLINATION":53.2172,"RA_OF_ASC_NODE":111.4915,"ARG_OF_PERICENTER":73.5257,"MEAN_ANOMALY":286.5902,"EPHEMERIS_TYPE":0,"CLASSIFICATION_TYPE":"U","NORAD_CAT_ID":51769,"ELEMENT_SET_NO":999,"REV_AT_EPOCH":21815,"BSTAR":0.00015224205,"MEAN_MOTION_DOT":2.136e-5,"MEAN_MOTION_DDOT":0},{"OBJECT_NAME":"STARLINK-3612","OBJECT_ID":"2022-017C","EPOCH":"2026-02-07T11:28:13.564992","MEAN_MOTION":15.08843424,"ECCENTRICITY":0.00014273,"INCLINATION":53.2181,"RA_OF_ASC_NODE":114.7477,"ARG_OF_PERICENTER":86.3941,"MEAN_ANOMALY":273.7214,"EPHEMERIS_TYPE":0,"CLASSIFICATION_TYPE":"U","NORAD_CAT_ID":51770,"ELEMENT_SET_NO":999,"REV_AT_EPOCH":21805,"BSTAR":6.4343888e-5,"MEAN_MOTION_DOT":7.36e-6,"MEAN_MOTION_DDOT":0},{"OBJECT_NAME":"STARLINK-3614","OBJECT_ID":"2022-017D","EPOCH":"2026-02-08T06:22:15.484800","MEAN_MOTION":15.0883801,"ECCENTRICITY":0.00013316,"INCLINATION":53.217,"RA_OF_ASC_NODE":111.2005,"ARG_OF_PERICENTER":99.7605,"MEAN_ANOMALY":260.3538,"EPHEMERIS_TYPE":0,"CLASSIFICATION_TYPE":"U","NORAD_CAT_ID":51771,"ELEMENT_SET_NO":999,"REV_AT_EPOCH":21816,"BSTAR":2.9890354e-5,"MEAN_MOTION_DOT":1.88e-6,"MEAN_MOTION_DDOT":0},{"OBJECT_NAME":"STARLINK-3623","OBJECT_ID":"2022-017E","EPOCH":"2026-02-08T04:36:16.144992","MEAN_MOTION":15.08838621,"ECCENTRICITY":0.0001457,"INCLINATION":53.2179,"RA_OF_ASC_NODE":111.5433,"ARG_OF_PERICENTER":75.6738,"MEAN_ANOMALY":284.4416,"EPHEMERIS_TYPE":0,"CLASSIFICATION_TYPE":"U","NORAD_CAT_ID":51772,"ELEMENT_SET_NO":999,"REV_AT_EPOCH":21814,"BSTAR":7.966744e-5,"MEAN_MOTION_DOT":9.8e-6,"MEAN_MOTION_DDOT":0},{"OBJECT_NAME":"STARLINK-3624","OBJECT_ID":"2022-017F","EPOCH":"2026-02-07T11:13:42.470688","MEAN_MOTION":15.08835166,"ECCENTRICITY":0.00013313,"INCLINATION":53.2176,"RA_OF_ASC_NODE":114.7654,"ARG_OF_PERICENTER":83.8462,"MEAN_ANOMALY":276.2682,"EPHEMERIS_TYPE":0,"CLASSIFICATION_TYPE":"U","NORAD_CAT_ID":51773,"ELEMENT_SET_NO":999,"REV_AT_EPOCH":21804,"BSTAR":1.7200377e-5,"MEAN_MOTION_DOT":-1.4e-7,"MEAN_MOTION_DDOT":0}]
